SCD 1                   
1 22490U 93009B   24003.37223993  .00000551  00000+0  10240-3 0  9995
2 22490  24.9716 334.8906 0042709  23.3883 137.2722 14.45114127631341
TECHSAT 1B (GO-32)      
1 25397U 98043D   24003.48504572  .00000125  00000+0  74209-4 0  9997
2 25397  98.8990 327.9588 0000344 315.9890  44.1261 14.23964448323831
SCD 2                   
1 25504U 98060A   24002.95502650  .00000472  00000+0  82597-4 0  9996
2 25504  24.9937 195.7852 0017141  18.6809 112.3752 14.44601306330540
LANDSAT 7               
1 25682U 99020A   24003.58321351  .00000451  00000+0  10230-3 0  9998
2 25682  97.9074  38.0561 0001582 100.9210  50.4339 14.60399101314964
DLR-TUBSAT              
1 25757U 99029B   24003.48604464  .00000186  00000+0  57837-4 0  9998
2 25757  98.5634 323.9789 0014030 191.4929 168.5947 14.51786533303253
TERRA                   
1 25994U 99068A   24003.61962997  .00000519  00000+0  11875-3 0  9998
2 25994  98.0721  71.8268 0002630 134.2392 352.6260 14.59517134278893
MAROC-TUBSAT            
1 27004U 01056D   24003.43399603 -.00000018  00000+0  31772-4 0  9994
2 27004  99.7062 156.2826 0019054 279.8942 147.2202 13.70191692103515
AQUA                    
1 27424U 02022A   24003.54923814  .00001085  00000+0  24253-3 0  9992
2 27424  98.3117 312.5762 0000592  64.1823 355.3650 14.58718112152526
IRS-P6 (RESOURCESAT-1)  
1 28051U 03046A   24003.62901231  .00000277  00000+0  10757-3 0  9990
2 28051  98.3343  67.0080 0060455 139.8802 339.8516 14.35930959 52011
SHIYAN 1 (SY-1)         
1 28220U 04012A   24003.59544295  .00006176  00000+0  39952-3 0  9993
2 28220  97.9815  24.6480 0008677 227.3873 132.6624 15.08547570 75007
AURA                    
1 28376U 04026A   24003.53586699  .00001054  00000+0  23902-3 0  9996
2 28376  98.2339 309.7739 0000962  97.1363 262.9945 14.58066223 35536
IRS-P5 (CARTOSAT-1)     
1 28649U 05017A   24003.55812230  .00001463  00000+0  17278-3 0  9998
2 28649  97.6403  53.6664 0002331 119.7969 240.3479 14.86122108 10554
SINAH 1                 
1 28893U 05043D   24003.36266576  .00000538  00000+0  11567-3 0  9990
2 28893  98.1740 128.6816 0014587 198.1666 161.9016 14.62427638969499
EROS B                  
1 29079U 06014A   24003.50069897  .00019472  00000+0  81469-3 0  9994
2 29079  97.3325 123.0648 0007448  59.6729 300.5244 15.23588576982381
RESURS-DK 1             
1 29228U 06021A   24003.57637698  .00002379  00000+0  16939-3 0  9993
2 29228  69.9351 126.0979 0007644 273.0787  86.9501 15.06070399967378
ARIRANG-2 (KOMPSAT-2)   
1 29268U 06031A   24003.58276560  .00000367  00000+0  79678-4 0  9991
2 29268  97.8794 219.3193 0015619  35.9158 349.3098 14.63350033930426
LAPAN-TUBSAT            
1 29709U 07001A   24003.51971700  .00000756  00000+0  98389-4 0  9992
2 29709  98.0478 337.1470 0011671 214.3106 145.7355 14.83557848918239
CARTOSAT-2 (IRS-P7)     
1 29710U 07001B   24003.44112640  .00176453  13167-4  66314-3 0  9999
2 29710  97.8891 169.7841 0044147 182.3566 177.7502 15.86203203923621
HAIYANG-1B              
1 31113U 07010A   24003.54197747  .00000125  00000+0  63637-4 0  9996
2 31113  98.2948  13.1580 0013267 342.4128  17.6594 14.30520712872556
COSMO-SKYMED 1          
1 31598U 07023A   24003.53270419  .00000653  00000+0  88524-4 0  9992
2 31598  97.8852 189.1181 0001254  94.4238 265.7118 14.82162640896588
TERRASAR-X              
1 31698U 07026A   24001.47304984  .00001281  00000+0  64167-4 0  9997
2 31698  97.4446  11.0215 0001964  80.6754 279.4703 15.19150916916931
WORLDVIEW-1 (WV-1)      
1 32060U 07041A   24003.34590388  .00009027  00000+0  37290-3 0  9993
2 32060  97.3854 125.1720 0001890 233.5193 126.5870 15.24228619906454
YAOGAN 3                
1 32289U 07055A   24003.54037821  .00002142  00000+0  26366-3 0  9994
2 32289  97.9045  30.4322 0001829  97.2851 262.8571 14.84009677872695
COSMO-SKYMED 2          
1 32376U 07059A   24003.56647689  .00000653  00000+0  88650-4 0  9996
2 32376  97.8852 189.1525 0001445  85.0542 275.0836 14.82150057869334
RADARSAT-2              
1 32382U 07061A   24003.55083601  .00000092  00000+0  52785-4 0  9990
2 32382  98.5785  12.3036 0001128  90.1503 269.9809 14.29984325837959
CARTOSAT-2A             
1 32783U 08021A   24003.59166926  .00000888  00000+0  12793-3 0  9995
2 32783  97.8914  65.5160 0013226 133.1776 227.0543 14.78673003846446
HUANJING 1A (HJ-1A)     
1 33320U 08041A   24003.59993978  .00001367  00000+0  19064-3 0  9991
2 33320  97.6359  18.8696 0020239 187.5468 172.5442 14.79092041825776
HUANJING 1B (HJ-1B)     
1 33321U 08041B   24003.58389797  .00001062  00000+0  14677-3 0  9996
2 33321  97.6344  23.3527 0037496 235.8767 123.8887 14.79617469825798
GEOEYE 1                
1 33331U 08042A   24003.55256632  .00000599  00000+0  12184-3 0  9991
2 33331  98.0667  79.0082 0006193 325.6741  34.4061 14.64544841819056
THEOS                   
1 33396U 08049A   24003.51221252  .00000063  00000+0  49819-4 0  9997
2 33396  98.6813  72.7645 0001230  93.6938 266.4379 14.20078810790842
COSMO-SKYMED 3          
1 33412U 08054A   24003.55034719  .00004001  00000+0  36328-3 0  9992
2 33412  97.8801 199.0908 0017827  49.2953 310.9812 14.95747602822518
YAOGAN 4                
1 33446U 08061A   24003.38131355  .00001127  00000+0  15884-3 0  9992
2 33446  97.8690 298.6352 0016963 102.6314 257.6795 14.79078199813040
GOSAT (IBUKI)           
1 33492U 09002A   24003.57522750  .00000923  00000+0  17098-3 0  9995
2 33492  98.0255 118.3265 0001194  86.5812 273.5529 14.67573581800102
YAOGAN 6                
1 34839U 09021A   24003.44075689  .00012365  00000+0  29762-3 0  9996
2 34839  97.1524 333.3301 0022572  66.9468 293.4156 15.41147413817850
DEIMOS-1                
1 35681U 09041A   24003.52729870  .00000678  00000+0  11304-3 0  9998
2 35681  97.6749 194.3906 0001559 146.6610 213.4697 14.72911320774924
DUBAISAT-1              
1 35682U 09041B   24003.39330651  .00001235  00000+0  20977-3 0  9995
2 35682  97.8808 144.7278 0012325  67.3387 292.9122 14.70822828773204
OCEANSAT-2              
1 35931U 09051A   24003.55698072 -.00000175  00000+0 -93822-4 0  9999
2 35931  98.2921  68.1656 0015789 242.7150 117.2409 13.99425188754052
WORLDVIEW-2 (WV-2)      
1 35946U 09055A   24003.51640032  .00000191  00000+0  77969-4 0  9998
2 35946  98.4321  79.6360 0002360  70.3218 289.8224 14.37572174746989
SMOS                    
1 36036U 09059A   24003.52208387  .00000355  00000+0  12710-3 0  9991
2 36036  98.4388 192.8687 0001031  76.5016 283.6287 14.39773097744574
YAOGAN 7                
1 36110U 09069A   24003.60258442  .00000612  00000+0  96474-4 0  9997
2 36110  98.1285 238.6981 0026539  41.4334 318.8881 14.75880302757427
TANDEM-X                
1 36605U 10030A   24001.47304862  .00001314  00000+0  65769-4 0  9990
2 36605  97.4457  11.0220 0001932  95.9876 264.1578 15.19150876750359
CARTOSAT-2B             
1 36795U 10035A   24003.56090456  .00000877  00000+0  12641-3 0  9991
2 36795  97.8856  65.2426 0012261 210.6558 149.3938 14.78696361727496
YAOGAN 10               
1 36834U 10038A   24003.58006103  .00000791  00000+0  10557-3 0  9995
2 36834  97.9582  21.6225 0001605  94.0776  18.9937 14.82358385724398
COSMO-SKYMED 4          
1 37216U 10060A   24003.57913595  .00000629  00000+0  85636-4 0  9997
2 37216  97.8852 189.1640 0001460  86.6887 273.4493 14.82149404711900
RESOURCESAT-2           
1 37387U 11015A   24003.56080356  .00000168  00000+0  96095-4 0  9995
2 37387  98.6004  73.7677 0003659 224.5288 135.5596 14.21685398658929
HAIYANG-2A              
1 37781U 11043A   24003.59797692 -.00000001  00000+0  42205-4 0  9996
2 37781  99.3244   9.8136 0001276 119.1289 240.9990 13.78763057623262
RASAT                   
1 37791U 11044D   24003.55996834  .00000681  00000+0  13276-3 0  9991
2 37791  98.0841  97.6849 0022244 144.7838 345.0106 14.65947290661853
SRMSAT                  
1 37841U 11058D   24003.36220208  .00000444  00000+0  98432-4 0  9991
2 37841  19.9728  79.6445 0012157  71.1780 359.0021 14.11009664631110
YAOGAN 13               
1 37941U 11072A   24003.57706563  .00015083  00000+0  44982-3 0  9999
2 37941  97.7049 338.6383 0001559 124.1771 235.9619 15.34754996571482
PLEIADES 1A             
1 38012U 11076F   24003.54208503  .00000424  00000+0  10105-3 0  9994
2 38012  98.1815  80.5124 0001479  88.2513  24.9956 14.58577306641435
ZIYUAN 1-02C (ZY 1-02C) 
1 38038U 11079A   24003.61498330  .00000479  00000+0  17806-3 0  9997
2 38038  98.5205  73.9757 0007763 100.5495  46.0879 14.36528301630543
ZIYUAN 3-1 (ZY 3-1)     
1 38046U 12001A   24003.55581706  .00009198  00000+0  34469-3 0  9996
2 38046  97.2719  69.5184 0003416 354.7161   5.4042 15.27474747665574
ARIRANG-3 (KOMPSAT-3)   
1 38338U 12025B   24003.58257634  .00000728  00000+0  15346-3 0  9992
2 38338  98.2440 309.9273 0011296  42.6439 317.5637 14.62384513620450
KANOPUS-V 1             
1 38707U 12039A   24003.39248598  .00020583  00000+0  56123-3 0  9994
2 38707  97.4883 297.2332 0002020  76.0105 284.1364 15.37487789635659
EXACTVIEW-1 (ADS-1B)    
1 38709U 12039C   24003.25842127  .00000159  00000+0  88970-4 0  9992
2 38709  98.9590  92.0011 0010251 229.9700 130.0579 14.24349762595130
SPOT 6                  
1 38755U 12047A   24003.60437468  .00000420  00000+0  10002-3 0  9990
2 38755  98.1669  72.7962 0001082  85.0828 275.0495 14.58584183602506
PLEIADES 1B             
1 39019U 12068A   24003.55426320 -.00000524  00000+0 -10309-3 0  9993
2 39019  98.1769  80.3797 0001217  89.4198 270.7141 14.58539759590291
GOKTURK 2               
1 39030U 12073A   24003.56488313  .00000608  00000+0  10066-3 0  9994
2 39030  97.7741 231.5171 0001597  62.7762 297.3609 14.73560118592518
LANDSAT 8               
1 39084U 13008A   24003.50603944  .00000452  00000+0  11033-3 0  9997
2 39084  98.2055  75.7360 0001177  86.4277 273.7056 14.57130068567466
SARAL                   
1 39086U 13009A   24003.59559459  .00000154  00000+0  73170-4 0  9990
2 39086  98.5453 191.0189 0002842  66.9582 293.1901 14.32321640567372
